[
  {
    "OBJECT_NAME": "ISS (ZARYA)",
    "OBJECT_ID": "1998-067A",
    "EPOCH": "2025-11-24T02:14:06.273888",
    "MEAN_MOTION": 15.49034016,
    "ECCENTRICITY": 0.0003932,
    "INCLINATION": 51.6317,
    "RA_OF_ASC_NODE": 234.7759,
    "ARG_OF_PERICENTER": 161.8932,
    "MEAN_ANOMALY": 198.2197,
    "EPHEMERIS_TYPE": 0,
    "CLASSIFICATION_TYPE": "U",
    "NORAD_CAT_ID": 25544,
    "ELEMENT_SET_NO": 999,
    "REV_AT_EPOCH": 53996,
    "BSTAR": 0.0002654,
    "MEAN_MOTION_DOT": 0.00014217,
    "MEAN_MOTION_DDOT": 0
  }
]