ISS (ZARYA)             
1 25544U 98067A   25328.09312817  .00014217  00000+0  26540-3 0  9995
2 25544  51.6317 234.7759 0003932 161.8932 198.2197 15.49034016539961
